start=new Date('2022-03-02T00:00:00.000Z').valueOf();
sats=[{"REF_FRAME":"TEME","PERIOD":"95.592","ECCENTRICITY":"0.00018050","NORAD_CAT_ID":"48372","EPOCH":"2022-03-01T20:05:51.184608","MEAN_MOTION_DOT":"0.00000805","ELEMENT_SET_NO":"999","TLE_LINE2":"2 48372  53.0561 105.5634 0001805  49.9719 310.1428 15.06399773 45775","MEAN_MOTION_DDOT":"0.0000000000000","EPHEMERIS_TYPE":"0","TLE_LINE1":"1 48372U 21038V   22060.83739797  .00000805  00000-0  72934-4 0  9993","COUNTRY_CODE":"US","PERIAPSIS":"545.964","OBJECT_ID":"2021-038V","CLASSIFICATION_TYPE":"U","REV_AT_EPOCH":"4577","INCLINATION":"53.0561","SEMIMAJOR_AXIS":"6925.349","TIME_SYSTEM":"UTC","MEAN_ELEMENT_THEORY":"SGP4","RCS_SIZE":"LARGE","DECAY_DATE":null,"APOAPSIS":"548.464","OBJECT_TYPE":"PAYLOAD","SITE":"AFETR","MEAN_ANOMALY":"310.1428","GP_ID":"197542657","FILE":"3338635","BSTAR":"0.00007293400000","LAUNCH_DATE":"2021-05-04","RA_OF_ASC_NODE":"105.5634","MEAN_MOTION":"15.06399773","ARG_OF_PERICENTER":"49.9719","OBJECT_NAME":"STARLINK-2572","CENTER_NAME":"EARTH"},{"REF_FRAME":"TEME","PERIOD":"95.592","ECCENTRICITY":"0.00016740","NORAD_CAT_ID":"48373","EPOCH":"2022-03-01T20:00:33.452928","MEAN_MOTION_DOT":"-0.00000570","ELEMENT_SET_NO":"999","TLE_LINE2":"2 48373  53.0543 105.5851 0001674  59.0835 301.0318 15.06395736 45774","MEAN_MOTION_DDOT":"0.0000000000000","EPHEMERIS_TYPE":"0","TLE_LINE1":"1 48373U 21038W   22060.83372052 -.00000570  00000-0 -19365-4 0  9991","COUNTRY_CODE":"US","PERIAPSIS":"546.067","OBJECT_ID":"2021-038W","CLASSIFICATION_TYPE":"U","INCLINATION":"53.0543","REV_AT_EPOCH":"4577","SEMIMAJOR_AXIS":"6925.362","TIME_SYSTEM":"UTC","MEAN_ELEMENT_THEORY":"SGP4","DECAY_DATE":null,"RCS_SIZE":"LARGE","APOAPSIS":"548.386","OBJECT_TYPE":"PAYLOAD","SITE":"AFETR","MEAN_ANOMALY":"301.0318","GP_ID":"197541405","FILE":"3338635","BSTAR":"-0.00001936500000","LAUNCH_DATE":"2021-05-04","RA_OF_ASC_NODE":"105.5851","MEAN_MOTION":"15.06395736","ARG_OF_PERICENTER":"59.0835","OBJECT_NAME":"STARLINK-2609","CENTER_NAME":"EARTH"},{"PERIAPSIS":"546.050","TLE_LINE1":"1 48374U 21038X   22060.49829785  .00001410  00000-0  11350-3 0  9991","COUNTRY_CODE":"US","EPHEMERIS_TYPE":"0","MEAN_MOTION_DDOT":"0.0000000000000","TIME_SYSTEM":"UTC","SEMIMAJOR_AXIS":"6925.336","INCLINATION":"53.0557","REV_AT_EPOCH":"4572","CLASSIFICATION_TYPE":"U","OBJECT_ID":"2021-038X","NORAD_CAT_ID":"48374","PERIOD":"95.592","ECCENTRICITY":"0.00016620","REF_FRAME":"TEME","TLE_LINE2":"2 48374  53.0557 107.0803 0001662  57.3201 302.7948 15.06404046 45726","ELEMENT_SET_NO":"999","MEAN_MOTION_DOT":"0.00001410","EPOCH":"2022-03-01T11:57:32.934240","RA_OF_ASC_NODE":"107.0803","LAUNCH_DATE":"2021-05-04","OBJECT_NAME":"STARLINK-2604","CENTER_NAME":"EARTH","ARG_OF_PERICENTER":"57.3201","MEAN_MOTION":"15.06404046","APOAPSIS":"548.352","DECAY_DATE":null,"RCS_SIZE":"LARGE","MEAN_ELEMENT_THEORY":"SGP4","BSTAR":"0.00011350000000","FILE":"3337314","GP_ID":"197490689","MEAN_ANOMALY":"302.7948","SITE":"AFETR","OBJECT_TYPE":"PAYLOAD"},{"CLASSIFICATION_TYPE":"U","OBJECT_ID":"2021-038Y","SEMIMAJOR_AXIS":"6925.370","TIME_SYSTEM":"UTC","REV_AT_EPOCH":"4577","INCLINATION":"53.0544","MEAN_MOTION_DDOT":"0.0000000000000","TLE_LINE1":"1 48375U 21038Y   22060.82635327 -.00000484  00000-0 -13581-4 0  9997","COUNTRY_CODE":"US","EPHEMERIS_TYPE":"0","PERIAPSIS":"546.040","EPOCH":"2022-03-01T19:49:56.922528","MEAN_MOTION_DOT":"-0.00000484","TLE_LINE2":"2 48375  53.0544 105.6087 0001725  57.6916 302.4240 15.06392977 45773","ELEMENT_SET_NO":"999","PERIOD":"95.593","ECCENTRICITY":"0.00017250","REF_FRAME":"TEME","NORAD_CAT_ID":"48375","MEAN_MOTION":"15.06392977","ARG_OF_PERICENTER":"57.6916","OBJECT_NAME":"STARLINK-2603","CENTER_NAME":"EARTH","LAUNCH_DATE":"2021-05-04","RA_OF_ASC_NODE":"105.6087","MEAN_ANOMALY":"302.4240","SITE":"AFETR","GP_ID":"197542906","OBJECT_TYPE":"PAYLOAD","FILE":"3338635","BSTAR":"-0.00001358100000","MEAN_ELEMENT_THEORY":"SGP4","APOAPSIS":"548.430","RCS_SIZE":"LARGE","DECAY_DATE":null},{"MEAN_MOTION_DDOT":"0.0000000000000","TLE_LINE1":"1 48376U 21038Z   22060.82267085 -.00001130  00000-0 -56961-4 0  9998","COUNTRY_CODE":"US","EPHEMERIS_TYPE":"0","PERIAPSIS":"546.052","OBJECT_ID":"2021-038Z","CLASSIFICATION_TYPE":"U","REV_AT_EPOCH":"4577","INCLINATION":"53.0556","SEMIMAJOR_AXIS":"6925.379","TIME_SYSTEM":"UTC","REF_FRAME":"TEME","PERIOD":"95.593","ECCENTRICITY":"0.00017220","NORAD_CAT_ID":"48376","EPOCH":"2022-03-01T19:44:38.761440","MEAN_MOTION_DOT":"-0.00001130","ELEMENT_SET_NO":"999","TLE_LINE2":"2 48376  53.0556 105.6319 0001722  64.3857 295.7310 15.06389993 45777","LAUNCH_DATE":"2021-05-04","RA_OF_ASC_NODE":"105.6319","MEAN_MOTION":"15.06389993","ARG_OF_PERICENTER":"64.3857","OBJECT_NAME":"STARLINK-2610","CENTER_NAME":"EARTH","MEAN_ELEMENT_THEORY":"SGP4","DECAY_DATE":null,"RCS_SIZE":"LARGE","APOAPSIS":"548.437","OBJECT_TYPE":"PAYLOAD","SITE":"AFETR","MEAN_ANOMALY":"295.7310","GP_ID":"197543157","FILE":"3338635","BSTAR":"-0.00005696100000"},{"INCLINATION":"53.0565","REV_AT_EPOCH":"4577","SEMIMAJOR_AXIS":"6925.361","TIME_SYSTEM":"UTC","OBJECT_ID":"2021-038AA","CLASSIFICATION_TYPE":"U","COUNTRY_CODE":"US","TLE_LINE1":"1 48377U 21038AA  22060.81897278  .00001198  00000-0  99302-4 0  9999","EPHEMERIS_TYPE":"0","PERIAPSIS":"546.086","MEAN_MOTION_DDOT":"0.0000000000000","ELEMENT_SET_NO":"999","TLE_LINE2":"2 48377  53.0565 105.6436 0001647  65.2845 294.8316 15.06395882 45771","EPOCH":"2022-03-01T19:39:19.248192","MEAN_MOTION_DOT":"0.00001198","NORAD_CAT_ID":"48377","REF_FRAME":"TEME","ECCENTRICITY":"0.00016470","PERIOD":"95.592","ARG_OF_PERICENTER":"65.2845","OBJECT_NAME":"STARLINK-2499","CENTER_NAME":"EARTH","MEAN_MOTION":"15.06395882","RA_OF_ASC_NODE":"105.6436","LAUNCH_DATE":"2021-05-04","FILE":"3338635","BSTAR":"0.00009930200000","OBJECT_TYPE":"PAYLOAD","MEAN_ANOMALY":"294.8316","SITE":"AFETR","GP_ID":"197541905","RCS_SIZE":"LARGE","DECAY_DATE":null,"APOAPSIS":"548.367","MEAN_ELEMENT_THEORY":"SGP4"},{"MEAN_MOTION_DOT":"-0.00000557","EPOCH":"2022-03-01T19:34:01.502688","TLE_LINE2":"2 48378  53.0542 105.6599 0001613  55.1429 304.9711 15.06387890 45778","ELEMENT_SET_NO":"999","ECCENTRICITY":"0.00016130","PERIOD":"95.593","REF_FRAME":"TEME","NORAD_CAT_ID":"48378","CLASSIFICATION_TYPE":"U","OBJECT_ID":"2021-038AB","TIME_SYSTEM":"UTC","SEMIMAJOR_AXIS":"6925.386","INCLINATION":"53.0542","REV_AT_EPOCH":"4577","MEAN_MOTION_DDOT":"0.0000000000000","PERIAPSIS":"546.134","COUNTRY_CODE":"US","TLE_LINE1":"1 48378U 21038AB  22060.81529517 -.00000557  00000-0 -18497-4 0  9994","EPHEMERIS_TYPE":"0","GP_ID":"197542155","MEAN_ANOMALY":"304.9711","SITE":"AFETR","OBJECT_TYPE":"PAYLOAD","BSTAR":"-0.00001849700000","FILE":"3338635","MEAN_ELEMENT_THEORY":"SGP4","APOAPSIS":"548.368","RCS_SIZE":"LARGE","DECAY_DATE":null,"MEAN_MOTION":"15.06387890","OBJECT_NAME":"STARLINK-2526","CENTER_NAME":"EARTH","ARG_OF_PERICENTER":"55.1429","LAUNCH_DATE":"2021-05-04","RA_OF_ASC_NODE":"105.6599"},{"REF_FRAME":"TEME","PERIOD":"95.593","ECCENTRICITY":"0.00017790","NORAD_CAT_ID":"48379","EPOCH":"2022-03-01T19:28:43.072032","MEAN_MOTION_DOT":"0.00001074","ELEMENT_SET_NO":"999","TLE_LINE2":"2 48379  53.0546 105.6731 0001779  60.2463 299.8703 15.06388225 45775","MEAN_MOTION_DDOT":"0.0000000000000","TLE_LINE1":"1 48379U 21038AC  22060.81160963  .00001074  00000-0  91010-4 0  9996","EPHEMERIS_TYPE":"0","COUNTRY_CODE":"US","PERIAPSIS":"546.018","OBJECT_ID":"2021-038AC","CLASSIFICATION_TYPE":"U","REV_AT_EPOCH":"4577","INCLINATION":"53.0546","SEMIMAJOR_AXIS":"6925.385","TIME_SYSTEM":"UTC","MEAN_ELEMENT_THEORY":"SGP4","DECAY_DATE":null,"RCS_SIZE":"MEDIUM","APOAPSIS":"548.482","OBJECT_TYPE":"PAYLOAD","SITE":"AFETR","MEAN_ANOMALY":"299.8703","GP_ID":"197542407","FILE":"3338635","BSTAR":"0.00009101000000","LAUNCH_DATE":"2021-05-04","RA_OF_ASC_NODE":"105.6731","MEAN_MOTION":"15.06388225","ARG_OF_PERICENTER":"60.2463","OBJECT_NAME":"STARLINK-2612","CENTER_NAME":"EARTH"},{"RA_OF_ASC_NODE":"107.0496","LAUNCH_DATE":"2021-05-04","ARG_OF_PERICENTER":"50.5756","OBJECT_NAME":"STARLINK-2614","CENTER_NAME":"EARTH","MEAN_MOTION":"15.06394453","APOAPSIS":"548.458","RCS_SIZE":"LARGE","DECAY_DATE":null,"MEAN_ELEMENT_THEORY":"SGP4","FILE":"3337314","BSTAR":"0.00005926800000","MEAN_ANOMALY":"309.5389","SITE":"AFETR","GP_ID":"197490192","OBJECT_TYPE":"PAYLOAD","EPHEMERIS_TYPE":"0","TLE_LINE1":"1 48380U 21038AD  22060.50472408  .00000601  00000-0  59268-4 0  9998","COUNTRY_CODE":"US","PERIAPSIS":"546.003","MEAN_MOTION_DDOT":"0.0000000000000","SEMIMAJOR_AXIS":"6925.366","TIME_SYSTEM":"UTC","INCLINATION":"53.0552","REV_AT_EPOCH":"4572","CLASSIFICATION_TYPE":"U","OBJECT_ID":"2021-038AD","NORAD_CAT_ID":"48380","PERIOD":"95.592","ECCENTRICITY":"0.00017720","REF_FRAME":"TEME","TLE_LINE2":"2 48380  53.0552 107.0496 0001772  50.5756 309.5389 15.06394453 45722","ELEMENT_SET_NO":"999","EPOCH":"2022-03-01T12:06:48.160512","MEAN_MOTION_DOT":"0.00000601"},{"OBJECT_TYPE":"PAYLOAD","MEAN_ANOMALY":"315.8010","SITE":"AFETR","GP_ID":"197541406","FILE":"3338635","BSTAR":"0.00019229000000","MEAN_ELEMENT_THEORY":"SGP4","RCS_SIZE":"LARGE","DECAY_DATE":null,"APOAPSIS":"548.348","MEAN_MOTION":"15.06400946","ARG_OF_PERICENTER":"44.3111","OBJECT_NAME":"STARLINK-2630","CENTER_NAME":"EARTH","LAUNCH_DATE":"2021-05-04","RA_OF_ASC_NODE":"106.5833","EPOCH":"2022-03-01T14:36:46.488960","MEAN_MOTION_DOT":"0.00002584","ELEMENT_SET_NO":"999","TLE_LINE2":"2 48381  53.0526 106.5833 0001643  44.3111 315.8010 15.06400946 45744","REF_FRAME":"TEME","PERIOD":"95.592","ECCENTRICITY":"0.00016430","NORAD_CAT_ID":"48381","OBJECT_ID":"2021-038AE","CLASSIFICATION_TYPE":"U","INCLINATION":"53.0526","REV_AT_EPOCH":"4574","SEMIMAJOR_AXIS":"6925.346","TIME_SYSTEM":"UTC","MEAN_MOTION_DDOT":"0.0000000000000","COUNTRY_CODE":"US","TLE_LINE1":"1 48381U 21038AE  22060.60887140  .00002584  00000-0  19229-3 0  9997","EPHEMERIS_TYPE":"0","PERIAPSIS":"546.073"}];
